# From MPC115882
P/2017 TW13 (Lemmon),e,44.8498,322.2931,119.9358,7.138909,0.0516721,0.70975884,66.5988,12/31.0/2021,2000,g 15.0,2.0
# From MPC114600
C/2017 U2 (Fuls),e,95.3875,149.7076,147.8501,2795,0.0000067,0.99759853,0.0000,08/28.1869/2017,2000,g  9.0,4.0
# From MPC114600
P/2017 U3 (PANSTARRS),e,15.9187,165.1109,296.5600,4.927512,0.0901078,0.09903903,89.3974,12/31.0/2021,2000,g 11.0,4.0
# From MPEC 2021-P47
C/2017 U4 (PANSTARRS),h,09/22.5434/2018,158.2086,245.9288,158.9887,1.001025,7.720644,2000,7.0,4.0
# From MPC114600
C/2017 U5 (PANSTARRS),e,18.9785,163.0863,261.9969,16.88656,0.0142034,0.74433715,20.9237,12/31.0/2021,2000,g 12.0,4.0
# From MPEC 2021-TD0
C/2017 U7 (PANSTARRS),h,09/14.4938/2019,142.5966,276.2483,326.3539,1.000692,6.425239,2000,8.3,2.0
# From MPC114600
C/2017 W2 (Leonard),e,98.2008,312.8341,168.9466,13.63214,0.0195820,0.71038661,29.7891,12/31.0/2021,2000,g 11.0,4.0
# From MPC114601
P/2017 W3 (Gibbs),e,18.1666,210.2499,327.8433,7.838242,0.0449134,0.50676055,62.9692,12/31.0/2021,2000,g 10.5,4.0
# From MPEC 2021-R75
C/2017 X1 (PANSTARRS),e,31.3161,251.1368,283.2361,31.16647,0.0056646,0.85020404,7.3381,12/31.0/2021,2000,g 10.0,4.0
# From MPC117069
C/2017 Y1 (PANSTARRS),e,55.2613,307.5162,134.2590,1761,0.0000133,0.99789517,0.0000,08/31.4036/2017,2000,g 11.5,4.0
# From MPEC 2021-W31
C/2017 Y2 (PANSTARRS),h,11/04.9095/2020,128.4187,65.9959,147.9151,1.000918,4.632706,2000,15.0,4.0
# From MPC111770
P/2017 Y3 (Leonard),e,27.5571,153.8421,67.6106,9.836305,0.0319489,0.86978864,45.3713,12/31.0/2021,2000,g 16.5,4.0
# From MPC114601
C/2018 A1 (PANSTARRS),e,53.6146,336.6604,96.2091,25.09985,0.0078379,0.90397699,12.0080,12/31.0/2021,2000,g 12.5,4.0
# From MPEC 2021-P47
C/2018 A3 (ATLAS),e,139.5369,194.2928,86.3665,414.4121,0.0001168,0.99209450,0.0000,01/12.0354/2019,2000,g  8.5,4.0
# From MPC114601
C/2018 A4 (PANSTARRS),e,3.1490,97.6111,355.9861,12.18834,0.0231626,0.80346545,30.6282,12/31.0/2021,2000,g 14.0,4.0
# From MPC109147
P/2018 A5 (PANSTARRS),e,23.5911,87.8083,359.5138,5.631644,0.0737482,0.52268468,115.0330,12/31.0/2021,2000,g 15.0,4.0
# From MPEC 2021-W31
C/2018 A6 (Gibbs),e,77.0559,340.3809,264.4324,15.14553,0.0167216,0.80073838,15.0848,12/31.0/2021,2000,g  9.0,4.0
# From MPC118841
C/2018 B1 (Lemmon),e,162.4207,133.1901,68.3363,20598,0.0000003,0.99975137,0.0000,03/28.6652/2018,2000,g  9.0,4.0
# From MPC114601
P/2018 C1 (Lemmon-Read),e,5.1156,270.3609,235.7054,5.653709,0.0733169,0.53229750,103.0491,12/31.0/2021,2000,g 13.5,4.0
# From MPC114601
C/2018 C2 (Lemmon),h,06/01.1032/2018,34.4619,91.1835,134.0882,1.000394,1.960053,2000,13.0,4.0
# From MPEC 2021-U31
C/2018 DO4 (Lemmon),e,160.4544,251.3676,176.2453,25.47250,0.0076665,0.90532473,6.6426,12/31.0/2021,2000,g 11.0,4.0
# From MPC114602
C/2018 E1 (ATLAS),e,72.5156,146.8656,299.3359,53.87396,0.0024925,0.94992929,3.3733,12/31.0/2021,2000,g 10.5,4.0
# From MPC114602
C/2018 E2 (Barros),e,97.6664,67.1774,277.4504,3726,0.0000043,0.99894831,0.0000,12/23.9812/2017,2000,g 10.5,4.0
# From MPC114602
C/2018 EN4 (NEOWISE),e,81.9129,136.1283,35.0763,18.08194,0.0128185,0.91930110,16.7341,12/31.0/2021,2000,g 15.0,4.0
# From MPC114602
C/2018 EF9 (Lemmon),e,84.6188,172.5548,72.6228,497.5316,0.0000888,0.99686610,0.0000,05/22.1860/2018,2000,g 18.0,2.0
# From MPEC 2021-R75
C/2018 F1 (Grauer),e,46.0772,177.2756,71.6152,260.9460,0.0002338,0.98852049,0.0000,12/13.1047/2018,2000,g 11.5,4.0
# From MPC110084
C/2018 F3 (Johnson),p,08/15.2314/2017,105.5348,293.0113,2.483172,173.0311,2000,13.0,4.0
# From MPEC 2021-W31
C/2018 F4 (PANSTARRS),h,12/03.9404/2019,78.0861,26.5157,263.2314,1.000782,3.441540,2000,11.0,6.0
# From MPEC 2021-Y10
C/2018 F4-A,h,12/03.9287/2019,78.0863,26.5159,263.2282,1.000730,3.441409,2000,11.0,6.0
# From MPEC 2021-W31
C/2018 F4-B,h,12/03.8649/2019,78.0871,26.5155,263.2132,1.000826,3.441191,2000,11.0,6.0
# From MPC114602
P/2018 H2 (PANSTARRS),e,7.3924,68.2807,119.9431,4.387987,0.1072275,0.54081413,154.3279,12/31.0/2021,2000,g 16.6,2.0
# From MPC114602
C/2018 K1 (Weiland),e,164.1934,260.0998,325.1716,30.11104,0.0059651,0.93746395,8.1356,12/31.0/2021,2000,g 14.9,4.0
# From MPEC 2021-R75
C/2018 KJ3 (Lemmon),e,136.6982,91.6219,217.6767,936.7506,0.0000344,0.99612517,0.0000,09/09.8725/2019,2000,g 12.2,2.0
# From MPC114602
P/2018 L1 (PANSTARRS),e,10.5868,268.6300,18.0222,3.652251,0.1412093,0.48242880,161.6276,12/31.0/2021,2000,g 15.0,4.0
# From MPEC 2021-P47
C/2018 L2 (ATLAS),e,67.3315,243.0175,56.2988,261.6621,0.0002329,0.99344952,0.0000,12/02.6223/2018,2000,g 10.0,4.0
# From MPC114603
P/2018 L4 (PANSTARRS),e,26.6250,145.1537,140.6101,4.943184,0.0896797,0.65973420,111.9561,12/31.0/2021,2000,g 17.5,4.0
# From MPC119996
P/2018 L5 (Leonard),e,2.2081,219.0816,93.8959,3.628453,0.1426008,0.36459981,190.4537,12/31.0/2021,2000,g 14.5,4.0
# From MPC117070
C/2018 M1 (Catalina),e,37.3017,339.4087,14.1969,21.42709,0.0099371,0.93918770,12.6140,12/31.0/2021,2000,g 15.5,4.0
# From MPC112393
C/2018 N1 (NEOWISE),e,159.4344,292.4749,354.6853,373.4558,0.0001366,0.99649022,0.0000,08/02.2075/2018,2000,g 15.5,4.0
# From MPEC 2021-Y10
C/2018 N2 (ASASSN),h,11/11.0645/2019,77.5385,25.2226,24.4286,1.000372,3.125547,2000,6.0,4.0
# From MPC114603
C/2018 O1 (ATLAS),e,154.0259,87.6996,162.6533,28.02264,0.0066442,0.94430663,8.0867,12/31.0/2021,2000,g 17.0,4.0
# From MPC114603
P/2018 P3 (PANSTARRS),e,8.9115,59.1655,305.9170,3.005293,0.1891794,0.41687074,222.7578,12/31.0/2021,2000,g 14.5,4.0
# From MPC114603
P/2018 P4 (PANSTARRS),e,23.1095,353.0624,8.3148,6.677890,0.0571143,0.45065145,65.5924,12/31.0/2021,2000,g 12.0,4.0
# From MPEC 2021-P47
C/2018 P5 (PANSTARRS),e,7.2496,216.2238,131.8282,12.82371,0.0214627,0.64279993,22.2642,12/31.0/2021,2000,g 11.0,4.0
# From MPC118841
C/2018 R3 (Lemmon),e,69.7282,324.6377,112.7822,1574,0.0000158,0.99918263,0.0000,06/07.4110/2019,2000,g  9.5,4.0
# From MPC112393
C/2018 R4 (Fuls),e,11.6797,298.4696,345.3160,336.7236,0.0001595,0.99489732,0.0000,03/03.3249/2018,2000,g 14.0,4.0
# From MPC114603
C/2018 R5 (Lemmon),e,103.7494,171.1150,178.1082,22.82032,0.0090411,0.84107972,9.8178,12/31.0/2021,2000,g 11.5,4.0
# From MPEC 2021-U31
C/2018 U1 (Lemmon),h,11/03.1036/2021,108.3008,75.4804,180.4671,1.001410,4.992965,2000,5.0,4.0
# From MPC114604
C/2018 V1 (Machholz-Fujikawa-Iwamoto),h,12/03.0048/2018,144.0629,128.9159,88.9195,1.000331,0.387916,2000,12.0,4.0
# From MPC115884
C/2018 V2 (ATLAS),e,159.1677,357.0814,318.9514,25.04527,0.0078635,0.90100240,8.8948,12/31.0/2021,2000,g 15.0,4.0
# From MPC114604
P/2018 VN2 (Leonard),e,18.2552,226.4798,138.7870,4.064288,0.1202894,0.47878957,156.8148,12/31.0/2021,2000,g 15.0,4.0
# From MPEC 2021-P47
A/2018 V3,e,164.9758,308.6645,3.5657,124.6555,0.0007082,0.98923934,0.0000,09/08.7838/2019,2000,g 15.7,2.0
# From MPC114604
C/2018 V4 (Africano),e,69.0100,78.3328,359.9266,203.8671,0.0003386,0.98432481,0.0000,03/01.3778/2019,2000,g 12.5,4.0
# From MPEC 2021-P47
P/2018 V5 (Trujillo-Sheppard),e,10.5883,171.2865,260.6593,8.955487,0.0367765,0.47498928,43.5835,12/31.0/2021,2000,g 12.5,4.0
# From MPEC 2021-P47
C/2018 W1 (Catalina),e,83.3113,233.6170,251.2361,21.67879,0.0097645,0.93724719,9.4163,12/31.0/2021,2000,g 15.5,2.0
# From MPEC 2021-P47
C/2018 W2 (Africano),h,09/05.4997/2019,116.6229,181.8261,158.0000,1.000416,1.456967,2000,9.5,4.0
# From MPC119996
C/2018 X2 (Fitzsimmons),e,23.0693,340.8312,162.0100,142.9787,0.0005765,0.98513634,0.0000,07/08.2367/2019,2000,g 12.0,4.0
# From MPC114604
C/2018 X3 (PANSTARRS),e,43.3826,78.8756,359.7338,12.37007,0.0226541,0.78223084,24.8365,12/31.0/2021,2000,g 14.5,4.0
# From MPC118842
C/2018 Y1 (Iwamoto),e,160.3998,147.5117,357.9772,136.1853,0.0006202,0.99057235,0.0000,02/06.7402/2019,2000,g 11.5,4.0
# From MPC114605
P/2018 Y2 (Africano),e,11.6824,297.2497,162.2804,7.456797,0.0484034,0.47873261,52.9796,12/31.0/2021,2000,g 11.5,4.0
# From MPC114605
P/2019 A1 (PANSTARRS),e,13.7452,312.2951,150.7356,5.119667,0.0850828,0.56850451,100.1782,12/31.0/2021,2000,g 16.0,4.0
# From MPEC 2021-P47
P/2019 A2 (ATLAS),e,14.8599,139.4690,323.9389,5.718281,0.0720785,0.38151020,81.9429,12/31.0/2021,2000,g 10.5,4.0
# From MPEC 2021-P47
P/2019 A3 (PANSTARRS),e,15.3722,31.2921,325.5503,3.145979,0.1766324,0.26590514,220.0555,12/31.0/2021,2000,g 16.0,4.0
# From MPC114605
P/2019 A4 (PANSTARRS),e,13.3082,119.2739,342.3122,2.615564,0.2330001,0.08736147,261.0292,12/31.0/2021,2000,g 15.0,4.0
# From MPEC 2021-P47
C/2019 A5 (PANSTARRS),e,67.5590,146.6270,355.8969,21.53778,0.0098606,0.70656493,9.2424,12/31.0/2021,2000,g  9.5,4.0
# From MPC114605
P/2019 A6 (Lemmon-PANSTARRS),e,33.2399,280.2434,156.1812,5.359908,0.0794270,0.63930715,96.8754,12/31.0/2021,2000,g 16.0,4.0
# From MPC115884
P/2019 A8 (PANSTARRS),e,2.3336,118.2417,61.3399,4.104834,0.1185116,0.29674416,138.1502,12/31.0/2021,2000,g 16.0,4.0
# From MPC118842
C/2019 A9 (PANSTARRS),e,84.1790,278.3853,237.9381,39.31950,0.0039975,0.96360744,3.5531,12/31.0/2021,2000,g 15.0,4.0
# From MPC114606
C/2019 B1 (Africano),e,123.3703,290.4243,174.8114,140.4722,0.0005920,0.98863395,0.0000,03/19.3679/2019,2000,g 16.0,4.0
# From MPC115885
P/2019 B2 (Groeller),e,16.9769,175.8227,0.6393,3.888954,0.1285153,0.36912461,120.3244,12/31.0/2021,2000,g 14.5,4.0
# From MPEC 2021-Y10
C/2019 B3 (PANSTARRS),h,01/20.3315/2021,66.5355,358.4363,263.9366,1.001509,6.823419,2000,5.5,4.0
# From MPEC 2021-P47
C/2019 C1 (ATLAS),e,36.0380,212.3859,319.1537,686.7891,0.0000548,0.99041892,0.0000,05/05.0927/2020,2000,g 10.0,4.0
# From MPC118842
C/2019 D1 (Flewelling),e,34.0510,231.6984,70.5869,143.0429,0.0005761,0.98894641,0.0000,05/11.7800/2019,2000,g 13.0,4.0
# From MPEC 2021-Y10
C/2019 E3 (ATLAS),h,11/13.7184/2023,84.2975,347.2536,280.6445,1.002239,10.313881,2000,2.5,4.0
# From MPEC 2021-Y10
C/2019 F1 (ATLAS-Africano),h,06/22.9469/2021,54.1751,38.7184,251.1527,1.003722,3.595902,2000,5.5,4.0
# From MPEC 2021-P47
C/2019 F2 (ATLAS),e,19.2247,175.5760,11.5115,16.67929,0.0144690,0.86546939,12.2167,12/31.0/2021,2000,g 12.0,4.0
# From MPEC 2021-P47
